{
  "norad_id": 55577,
  "name": "STARLINK-5752",
  "history": [
    {
      "epoch": "2026-03-28T20:43:39.718560",
      "apogee_km": 486.5166422691509,
      "perigee_km": 484.6483378239609,
      "latitude_deg": 16.006094822223037,
      "longitude_deg": -179.38920160010457,
      "semi_major_axis_km": 6863.719490046556,
      "eccentricity": 0.0001361,
      "inclination_deg": 42.9997,
      "raan_deg": 256.985,
      "arg_perigee_deg": 284.4413,
      "mean_anomaly_deg": 75.6287,
      "mean_motion_rev_day": 15.26734335
    }
  ]
}